OBJECT_NAME,OBJECT_ID,EPOCH,MEAN_MOTION,ECCENTRICITY,INCLINATION,RA_OF_ASC_NODE,ARG_OF_PERICENTER,MEAN_ANOMALY,EPHEMERIS_TYPE,CLASSIFICATION_TYPE,NORAD_CAT_ID,ELEMENT_SET_NO,REV_AT_EPOCH,BSTAR,MEAN_MOTION_DOT,MEAN_MOTION_DDOT
STARLINK-37299,2026-160Q,2026-07-23T04:33:42.243264,15.81212531,.00117327,69.9947,2.9184,211.6068,148.4431,0,U,100015,999,265,.17484723E-2,.359477E-2,0
STARLINK-38052,2026-160R,2026-07-23T13:41:13.215840,15.78508449,.00037389,69.9958,1.8409,269.6591,90.4180,0,U,100016,999,271,.20886765E-2,.379575E-2,0
STARLINK-38114,2026-160S,2026-07-22T20:54:28.970496,15.83702974,.00107134,70.0012,3.8081,242.6107,117.4006,0,U,100017,999,260,.16829252E-2,.389529E-2,0
STARLINK-37239,2026-160T,2026-07-23T10:35:27.792096,15.80667120,.00109797,70.0024,2.1845,204.8297,155.2378,0,U,100018,999,269,.12924262E-2,.255939E-2,0
STARLINK-37580,2026-160U,2026-07-23T10:34:23.413728,15.80969764,.00180848,70.0002,2.1800,261.9103,98.0047,0,U,100019,999,269,.26065E-2,.544325E-2,0
STARLINK-38032,2026-160V,2026-07-23T10:32:12.921216,15.81759405,.00152379,70.0005,2.1745,211.4456,148.5837,0,U,100020,999,269,.22514184E-2,.482793E-2,0
STARLINK-38110,2026-160W,2026-07-23T10:33:18.464256,15.78573731,.00031839,70.0003,2.1762,276.0104,84.0733,0,U,100021,999,269,.18719723E-2,.339545E-2,0
STARLINK-38103,2026-160X,2026-07-23T12:03:28.322496,15.78565850,.00038783,69.9998,1.9935,275.4898,84.5859,0,U,100022,999,270,.14344701E-2,.257587E-2,0
STARLINK-38102,2026-160Y,2026-07-23T10:31:08.865120,15.79464008,.00078751,70.0000,2.1811,284.8148,75.2180,0,U,100023,999,269,.23671137E-2,.453389E-2,0
STARLINK-38108,2026-160Z,2026-07-23T10:30:03.162240,15.78734501,.00031715,70.0029,2.1696,181.1624,178.9570,0,U,100024,999,269,.14958912E-2,.27106E-2,0
STARLINK-38109,2026-160AA,2026-07-23T10:28:58.534176,15.78496921,.00054671,70.0012,2.1676,283.2236,76.8354,0,U,100025,999,269,.17779089E-2,.320794E-2,0
STARLINK-38034,2026-160AB,2026-07-23T11:59:08.839968,15.78520240,.00054018,70.0007,1.9833,285.4497,74.6106,0,U,100026,999,270,.14289512E-2,.256117E-2,0
STARLINK-38094,2026-160AC,2026-07-22T11:39:40.789728,15.82970260,.00053361,70.0027,4.8718,279.9546,80.1054,0,U,100027,999,254,-.43305915E-2,-.842219E-2,0
STARLINK-37844,2026-161A,2026-07-23T15:01:59.577600,15.83743275,.00008152,53.1597,279.2967,67.0540,293.0570,0,U,100028,999,261,-.42718175E-2,-.873805E-2,0
STARLINK-37610,2026-161B,2026-07-23T08:57:11.405088,15.86453472,.00102267,53.1602,280.5595,257.0544,102.9339,0,U,100029,999,144,.17495346E-2,.475581E-2,0
STARLINK-37845,2026-161C,2026-07-23T08:57:10.749312,15.84781469,.00055143,53.1605,280.5591,207.2986,152.7749,0,U,100030,999,144,.15605748E-2,.38642E-2,0
STARLINK-37336,2026-161D,2026-07-23T13:26:59.065440,15.84591396,.00017121,53.1593,279.5954,241.8139,118.2712,0,U,100031,999,147,-.72239912E-2,-.150164E-1,0
STARLINK-37481,2026-161E,2026-07-23T14:56:48.429600,15.84874219,.00011814,53.1603,279.2716,136.5406,223.5712,0,U,100032,999,148,.10971679E-3,.25471E-3,0
STARLINK-37458,2026-161F,2026-07-23T14:55:50.234880,15.84412746,.00024876,53.1596,279.2676,25.7523,334.3624,0,U,100033,999,148,-.34421538E-2,-.739123E-2,0
STARLINK-37917,2026-161G,2026-07-23T11:52:12.352224,15.85563639,.00015409,53.1601,279.8933,237.8513,122.2362,0,U,100034,999,146,-.43681694E-2,-.965666E-2,0
STARLINK-37415,2026-161H,2026-07-23T11:51:11.733984,15.85833351,.00013973,53.1598,279.8896,187.7530,172.3474,0,U,100035,999,146,-.1012363E-1,-.2166584E-1,0
STARLINK-37560,2026-161J,2026-07-23T11:50:10.711392,15.85656687,.0001434,53.1599,279.8834,147.1980,212.9134,0,U,100036,999,146,-.61883197E-2,-.1345045E-1,0
STARLINK-37847,2026-161K,2026-07-23T11:49:10.900992,15.85970912,.0003412,53.1597,279.8796,286.8166,73.2484,0,U,100037,999,146,-.98249646E-2,-.2127269E-1,0
STARLINK-37672,2026-161L,2026-07-23T11:48:17.836704,15.86097928,.00024557,53.1598,279.8746,174.3843,185.7210,0,U,100038,999,146,-.44313081E-2,-.1001874E-1,0
STARLINK-37693,2026-161M,2026-07-23T11:47:21.344064,15.86315378,.00118945,53.1594,279.8707,120.5267,239.6933,0,U,100039,999,146,-.35687412E-2,-.838565E-2,0
STARLINK-37714,2026-161N,2026-07-23T11:47:22.253856,15.86049351,.00026086,53.1595,279.8700,129.0263,231.0994,0,U,100040,999,146,-.32285727E-2,-.749819E-2,0
STARLINK-37448,2026-161P,2026-07-23T05:42:36.089280,15.90015513,.00124719,53.1594,281.1367,217.6982,142.3172,0,U,100041,999,142,.14204806E-2,.435499E-2,.82198172E-4
STARLINK-38002,2026-161Q,2026-07-23T04:11:53.551968,15.87759360,.00022493,53.1599,281.4533,190.8543,169.2435,0,U,100042,999,141,-.66240177E-3,-.178929E-2,0
STARLINK-38023,2026-161R,2026-07-23T13:27:00.659520,15.84478478,.0004323,53.1595,279.5949,151.7399,208.3861,0,U,100043,999,147,-.40852684E-2,-.867994E-2,0
STARLINK-37984,2026-161S,2026-07-23T14:45:58.594464,15.85690377,.00003843,53.1605,279.2213,293.9741,66.1244,0,U,100044,999,148,-.38057032E-2,-.856959E-2,0
