{"epoch":1784848540,"count":18314,"objects":[{"id":"100015","name":"STARLINK-37299","type":"PAYLOAD","l1":"1 A0015U 26160Q   26204.19007226  .00359477  00000-0  17485-2 0  9994","l2":"2 A0015  69.9947   2.9184 0011733 211.6068 148.4431 15.81212531  2652"},{"id":"100016","name":"STARLINK-38052","type":"PAYLOAD","l1":"1 A0016U          26204.57029185  .00379575  00000-0  20887-2 0  9991","l2":"2 A0016  69.9958   1.8409 0003739 269.6591  90.4180 15.78508449  2710"},{"id":"100017","name":"STARLINK-38114","type":"PAYLOAD","l1":"1 A0017U 26160S   26203.87116864  .00389529  00000-0  16829-2 0  9991","l2":"2 A0017  70.0012   3.8081 0010713 242.6107 117.4006 15.83702974  2607"},{"id":"100018","name":"STARLINK-37239","type":"PAYLOAD","l1":"1 A0018U 26160T   26204.44129389  .00255939  00000-0  12924-2 0  9991","l2":"2 A0018  70.0024   2.1845 0010980 204.8297 155.2378 15.80667120  2698"},{"id":"100019","name":"STARLINK-37580","type":"PAYLOAD","l1":"1 A0019U 26160U   26204.44054877  .00544325  00000-0  26065-2 0  9992","l2":"2 A0019  70.0002   2.1800 0018085 261.9103  98.0047 15.80969764  2696"},{"id":"100020","name":"STARLINK-38032","type":"PAYLOAD","l1":"1 A0020U 26160V   26204.43903844  .00482793  00000-0  22514-2 0  9995","l2":"2 A0020  70.0005   2.1745 0015238 211.4456 148.5837 15.81759405  2695"},{"id":"100021","name":"STARLINK-38110","type":"PAYLOAD","l1":"1 A0021U          26204.43979704  .00339545  00000-0  18720-2 0  9999","l2":"2 A0021  70.0003   2.1762 0003184 276.0104  84.0733 15.78573731  2698"},{"id":"100022","name":"STARLINK-38103","type":"PAYLOAD","l1":"1 A0022U          26204.50241114  .00257587  00000-0  14345-2 0  9999","l2":"2 A0022  69.9998   1.9935 0003878 275.4898  84.5859 15.78565850  2700"},{"id":"100023","name":"STARLINK-38102","type":"PAYLOAD","l1":"1 A0023U          26204.43829705  .00453389  00000-0  23671-2 0  9990","l2":"2 A0023  70.0000   2.1811 0007875 284.8148  75.2180 15.79464008  2693"},{"id":"100024","name":"STARLINK-38108","type":"PAYLOAD","l1":"1 A0024U          26204.43753660  .00271060  00000-0  14959-2 0  9990","l2":"2 A0024  70.0029   2.1696 0003171 181.1624 178.9570 15.78734501  2690"},{"id":"100025","name":"STARLINK-38109","type":"PAYLOAD","l1":"1 A0025U          26204.43678859  .00320794  00000-0  17779-2 0  9999","l2":"2 A0025  70.0012   2.1676 0005467 283.2236  76.8354 15.78496921  2691"},{"id":"100026","name":"STARLINK-38034","type":"PAYLOAD","l1":"1 A0026U          26204.49940787  .00256117  00000-0  14290-2 0  9990","l2":"2 A0026  70.0007   1.9833 0005402 285.4497  74.6106 15.78520240  2705"},{"id":"100027","name":"STARLINK-38094","type":"PAYLOAD","l1":"1 A0027U 26160AC  26203.48588877 -.00842219  00000-0 -43306-2 0  9998","l2":"2 A0027  70.0027   4.8718 0005336 279.9546  80.1054 15.82970260  2543"},{"id":"100028","name":"STARLINK-37844","type":"PAYLOAD","l1":"1 A0028U          26204.62638400 -.00873805  00000-0 -42718-2 0  9990","l2":"2 A0028  53.1597 279.2967 0000815  67.0540 293.0570 15.83743275  2610"},{"id":"100029","name":"STARLINK-37610","type":"PAYLOAD","l1":"1 A0029U 26161B   26204.37304867  .00475581  00000-0  17495-2 0  9997","l2":"2 A0029  53.1602 280.5595 0010227 257.0544 102.9339 15.86453472  1444"},{"id":"100030","name":"STARLINK-37845","type":"PAYLOAD","l1":"1 A0030U          26204.37304108  .00386420  00000-0  15606-2 0  9996","l2":"2 A0030  53.1605 280.5591 0005514 207.2986 152.7749 15.84781469  1441"},{"id":"100031","name":"STARLINK-37336","type":"PAYLOAD","l1":"1 A0031U          26204.56040585 -.01501640  00000-0 -72240-2 0  9997","l2":"2 A0031  53.1593 279.5954 0001712 241.8139 118.2712 15.84591396  1477"},{"id":"100032","name":"STARLINK-37481","type":"PAYLOAD","l1":"1 A0032U          26204.62278275  .00025471  00000-0  10972-3 0  9999","l2":"2 A0032  53.1603 279.2716 0001181 136.5406 223.5712 15.84874219  1489"},{"id":"100033","name":"STARLINK-37458","type":"PAYLOAD","l1":"1 A0033U          26204.62210920 -.00739123  00000-0 -34422-2 0  9996","l2":"2 A0033  53.1596 279.2676 0002488  25.7523 334.3624 15.84412746  1482"},{"id":"100034","name":"STARLINK-37917","type":"PAYLOAD","l1":"1 A0034U 26161G   26204.49458741 -.00965666  00000-0 -43682-2 0  9994","l2":"2 A0034  53.1601 279.8933 0001541 237.8513 122.2362 15.85563639  1466"},{"id":"100035","name":"STARLINK-37415","type":"PAYLOAD","l1":"1 A0035U 26161H   26204.49388581 -.02166584  00000-0 -10124-1 0  9997","l2":"2 A0035  53.1598 279.8896 0001397 187.7530 172.3474 15.85833351  1462"},{"id":"100036","name":"STARLINK-37560","type":"PAYLOAD","l1":"1 A0036U 26161J   26204.49317953 -.01345045  00000-0 -61883-2 0  9992","l2":"2 A0036  53.1599 279.8834 0001434 147.1980 212.9134 15.85656687  1466"},{"id":"100037","name":"STARLINK-37847","type":"PAYLOAD","l1":"1 A0037U 26161K   26204.49248728 -.02127269  00000-0 -98250-2 0  9991","l2":"2 A0037  53.1597 279.8796 0003412 286.8166  73.2484 15.85970912  1463"},{"id":"100038","name":"STARLINK-37672","type":"PAYLOAD","l1":"1 A0038U 26161L   26204.49187311 -.01001874  00000-0 -44313-2 0  9995","l2":"2 A0038  53.1598 279.8746 0002456 174.3843 185.7210 15.86097928  1464"},{"id":"100039","name":"STARLINK-37693","type":"PAYLOAD","l1":"1 A0039U 26161M   26204.49121926 -.00838565  00000-0 -35687-2 0  9994","l2":"2 A0039  53.1594 279.8707 0011894 120.5267 239.6933 15.86315378  1460"},{"id":"100040","name":"STARLINK-37714","type":"PAYLOAD","l1":"1 A0040U          26204.49122979 -.00749819  00000-0 -32286-2 0  9994","l2":"2 A0040  53.1595 279.8700 0002609 129.0263 231.0994 15.86049351  1468"},{"id":"100041","name":"STARLINK-37448","type":"PAYLOAD","l1":"1 A0041U 26161P   26204.23791770  .00435499  82198-4  14205-2 0  9991","l2":"2 A0041  53.1594 281.1367 0012472 217.6982 142.3172 15.90015513  1420"},{"id":"100042","name":"STARLINK-38002","type":"PAYLOAD","l1":"1 A0042U          26204.17492537 -.00178929  00000-0 -66240-3 0  9997","l2":"2 A0042  53.1599 281.4533 0002249 190.8543 169.2435 15.87759360  1410"},{"id":"100043","name":"STARLINK-38023","type":"PAYLOAD","l1":"1 A0043U          26204.56042430 -.00867994  00000-0 -40853-2 0  9992","l2":"2 A0043  53.1595 279.5949 0004323 151.7399 208.3861 15.84478478  1475"},{"id":"100044","name":"STARLINK-37984","type":"PAYLOAD","l1":"1 A0044U          26204.61526151 -.00856959  00000-0 -38057-2 0  9998","l2":"2 A0044  53.1605 279.2213 0000384 293.9741  66.1244 15.85690377  1483"}]}